0 THORAD DELTA 1 DEB
1 08182U 74089AY  13283.04240208  .00001263  00000-0  63868-2 0  9595
2 08182 100.5352 313.8081 0156477 163.1250 225.6456 12.68343046777287
0 THORAD DELTA 1 DEB
1 08182U 74089AY  13287.63841645  .00001435  00000-0  72339-2 0  9613
2 08182 100.5338 318.0081 0155698 154.1176 330.7393 12.68356341777863
0 THORAD DELTA 1 DEB
1 08182U 74089AY  13289.92514012  .00001426  00000-0  71920-2 0  9628
2 08182 100.5344 320.0991 0155095 149.6288 331.8664 12.68364424778154
0 THORAD DELTA 1 DEB
1 08182U 74089AY  13291.58338512  .00001494  00000-0  75251-2 0  9639
2 08182 100.5335 321.6133 0154788 146.2841 343.5023 12.68369608778366
0 THORAD DELTA 1 DEB
1 08182U 74089AY  13293.06680819  .00001693  00000-0  85018-2 0  9648
2 08182 100.5338 322.9686 0154320 143.2738 276.9499 12.68377920778553
0 THORAD DELTA 1 DEB
1 08182U 74089AY  13295.03201789  .00001610  00000-0  80973-2 0  9657
2 08182 100.5340 324.7643 0153741 139.3813 250.2154 12.68382348778806
0 THORAD DELTA 1 DEB
1 08182U 74089AY  13296.06393977  .00001750  00000-0  87852-2 0  9661
2 08182 100.5353 325.7059 0153402 137.4598 281.9211 12.68387291778936
